BEIDOU-2 IGSO-1 (C06)   
1 36828U 10036A   24107.09773064 -.00000114  00000+0  00000+0 0  9992
2 36828  54.2443 170.1322 0040088 199.8970 333.3797  1.00245293 50264
BEIDOU-2 G4 (C04)       
1 37210U 10057A   24113.68244063 -.00000100  00000+0  00000+0 0  9990
2 37210   1.7130  67.9178 0003570 204.2920 344.7267  1.00273297 49411
BEIDOU-2 IGSO-2 (C07)   
1 37256U 10068A   24113.40437521 -.00000207  00000+0  00000+0 0  9993
2 37256  48.9841 281.4945 0032939 208.8271 334.2387  1.00268289 48914
BEIDOU-2 IGSO-3 (C08)   
1 37384U 11013A   24113.60435312 -.00000197  00000+0  00000+0 0  9992
2 37384  61.2767  47.6477 0025786 180.3700 309.5252  1.00273018 47782
BEIDOU-2 IGSO-4 (C09)   
1 37763U 11038A   24113.63372394 -.00000015  00000+0  00000+0 0  9992
2 37763  54.5508 172.6677 0123548 228.3796 134.4558  1.00271141 46772
BEIDOU-2 IGSO-5 (C10)   
1 37948U 11073A   24113.93591299 -.00000153  00000+0  00000+0 0  9999
2 37948  49.1144 281.1714 0095181 219.1067 142.5812  1.00264198 45531
BEIDOU-2 G5 (C05)       
1 38091U 12008A   24114.12759663  .00000068  00000+0  00000+0 0  9995
2 38091   1.9424  70.3505 0009103 263.3070 342.7523  1.00277360 44603
BEIDOU-2 M3 (C11)       
1 38250U 12018A   24113.08947518 -.00000067  00000+0  00000+0 0  9995
2 38250  56.3743 331.2067 0020840 266.7873  93.0198  1.86231470 81307
BEIDOU-2 M4 (C12)       
1 38251U 12018B   24114.09381976 -.00000064  00000+0  00000+0 0  9995
2 38251  56.2817 330.4494 0011776 272.0696  87.8394  1.86232179 81671
BEIDOU-2 M6 (C14)       
1 38775U 12050B   24114.34015869  .00000016  00000+0  00000+0 0  9991
2 38775  55.8721  88.9950 0014797 331.7028  28.1944  1.86231197 79047
BEIDOU-2 G6 (C02)       
1 38953U 12059A   24114.49062214 -.00000162  00000+0  00000+0 0  9993
2 38953   2.4203  80.8241 0010964 308.2979  83.5843  1.00273676 42180
BEIDOU-3S IGSO-1S (C31) 
1 40549U 15019A   24113.99166740 -.00000156  00000+0  00000+0 0  9992
2 40549  50.6755 304.8372 0036364 191.2257 166.6299  1.00261665 33190
BEIDOU-3S M2S (C58)     
1 40748U 15037A   24113.22064793 -.00000066  00000+0  00000+0 0  9994
2 40748  55.5155 328.9340 0007907 260.6958  99.2573  1.86233299 59483
BEIDOU-3S M1S (C57)     
1 40749U 15037B   24113.49097282 -.00000066  00000+0  00000+0 0  9993
2 40749  55.5184 328.9118 0005323 359.3720   0.6698  1.86233131 59481
BEIDOU-3S IGSO-2S (C56) 
1 40938U 15053A   24113.75102222 -.00000155  00000+0  00000+0 0  9990
2 40938  50.4478 268.0476 0050341 188.0893 122.1056  1.00275579 31475
BEIDOU-2 IGSO-6 (C13)   
1 41434U 16021A   24113.82069812 -.00000170  00000+0  00000+0 0  9990
2 41434  59.1009  45.9088 0048868 225.0439 331.6748  1.00281934 29590
BEIDOU-2 G7 (C03)       
1 41586U 16037A   24114.49584351 -.00000339  00000+0  00000+0 0  9996
2 41586   1.7757  68.9061 0009361 327.3238 104.7778  1.00267636 28915
BEIDOU-3 M1 (C19)       
1 43001U 17069A   24114.10625836  .00000017  00000+0  00000+0 0  9990
2 43001  56.0224  89.0922 0012488 302.5327  57.3253  1.86231576 43982
BEIDOU-3 M2 (C20)       
1 43002U 17069B   24112.43252245  .00000022  00000+0  00000+0 0  9991
2 43002  56.0203  89.1837 0010229 320.9690  38.9427  1.86231149 43944
BEIDOU-3 M7 (C27)       
1 43107U 18003A   24114.32999850 -.00000066  00000+0  00000+0 0  9995
2 43107  54.9726 329.5113 0005168  64.2592 295.8354  1.86232584 42744
BEIDOU-3 M8 (C28)       
1 43108U 18003B   24113.19607308 -.00000068  00000+0  00000+0 0  9996
2 43108  54.9660 329.5361 0002502 276.2555  83.7585  1.86231046 42720
BEIDOU-3 M4 (C22)       
1 43207U 18018A   24113.10042326  .00000020  00000+0  00000+0 0  9993
2 43207  55.9803  89.2166 0007349 339.5591  20.3945  1.86231521 42107
BEIDOU-3 M3 (C21)       
1 43208U 18018B   24113.16698610  .00000019  00000+0  00000+0 0  9991
2 43208  55.9799  89.2187 0010257 311.3564  48.5381  1.86231530 42101
BEIDOU-3 M9 (C29)       
1 43245U 18029A   24114.46266575 -.00000063  00000+0  00000+0 0  9999
2 43245  54.8579 327.2198 0000856  35.2318 324.8120  1.86232868 41280
BEIDOU-3 M10 (C30)      
1 43246U 18029B   24112.24463063 -.00000068  00000+0  00000+0 0  9990
2 43246  54.8566 327.3242 0004721  16.6926 343.3639  1.86233014 41220
BEIDOU-2 IGSO-7 (C16)   
1 43539U 18057A   24113.51695497 -.00000074  00000+0  00000+0 0  9992
2 43539  55.1339 169.8546 0073943 232.8451 107.5132  1.00270345 21253
BEIDOU-3 M5 (C23)       
1 43581U 18062A   24113.00370509 -.00000001  00000+0  00000+0 0  9993
2 43581  54.1384 209.0483 0003170 277.6731  82.3132  1.86228866 38993
BEIDOU-3 M6 (C24)       
1 43582U 18062B   24113.94373363  .00000013  00000+0  00000+0 0  9990
2 43582  54.1378 209.0057 0004599  24.0726 335.9779  1.86229631 39017
BEIDOU-3 M12 (C26)      
1 43602U 18067A   24113.34074633  .00000006  00000+0  00000+0 0  9992
2 43602  54.2279 207.7023 0006979  24.7442 335.3169  1.86231820 38485
BEIDOU-3 M11 (C25)      
1 43603U 18067B   24113.47465814  .00000008  00000+0  00000+0 0  9994
2 43603  54.2252 207.6629 0003770  14.7541 345.2856  1.86231662 38514
BEIDOU-3 M13 (C32)      
1 43622U 18072A   24113.43513850  .00000017  00000+0  00000+0 0  9991
2 43622  55.9515  88.7382 0008987 300.4297  59.4625  1.86231442 38027
BEIDOU-3 M14 (C33)      
1 43623U 18072B   24113.30059157  .00000018  00000+0  00000+0 0  9994
2 43623  55.9532  88.7358 0006751 320.0275  39.9043  1.86231503 38015
BEIDOU-3 M16 (C35)      
1 43647U 18078A   24113.46368832 -.00000066  00000+0  00000+0 0  9990
2 43647  54.7548 327.3573 0008054  20.6692 339.4033  1.86232434 37537
BEIDOU-3 M15 (C34)      
1 43648U 18078B   24113.59286572 -.00000066  00000+0  00000+0 0  9995
2 43648  54.7508 327.3559 0005195  30.9069 329.1634  1.86232319 37549
BEIDOU-3 G1 (C59)       
1 43683U 18085A   24114.00045667 -.00000264  00000+0  00000+0 0  9997
2 43683   2.0560 111.7643 0004031 342.6079 257.4058  1.00270912 20185
BEIDOU-3 M17 (C36)      
1 43706U 18093A   24114.27929865  .00000017  00000+0  00000+0 0  9997
2 43706  54.2212 208.9391 0008366 281.0287  78.9090  1.86228487 36908
BEIDOU-3 M18 (C37)      
1 43707U 18093B   24111.99723867 -.00000016  00000+0  00000+0 0  9998
2 43707  54.2222 209.0082 0006590 313.1977  46.7635  1.86229949 36877
BEIDOU-3 IGSO-1 (C38)   
1 44204U 19023A   24113.75322128 -.00000226  00000+0  00000+0 0  9999
2 44204  57.5649  45.8045 0019381 214.8199 340.8185  1.00266323 18487
BEIDOU-2 G8 (C01)       
1 44231U 19027A   24114.52281375 -.00000233  00000+0  00000+0 0  9995
2 44231   1.8135  73.5087 0002426 173.5788 297.7276  1.00272669 18201
BEIDOU-3 IGSO-2 (C39)   
1 44337U 19035A   24113.51823853 -.00000071  00000+0  00000+0 0  9992
2 44337  55.1683 165.7564 0032870 208.0004 142.2926  1.00258838 17783
BEIDOU-3 M24 (C46)      
1 44542U 19061A   24113.67807600  .00000009  00000+0  00000+0 0  9998
2 44542  54.4489 209.2346 0007258 355.7832   4.2373  1.86231175 31160
BEIDOU-3 M23 (C45)      
1 44543U 19061B   24114.22371986  .00000016  00000+0  00000+0 0  9992
2 44543  54.4472 209.1854 0004331 340.3416 297.7014  1.86231738 31170
BEIDOU-3 IGSO-3 (C40)   
1 44709U 19073A   24113.88477203 -.00000182  00000+0  00000+0 0  9994
2 44709  56.1448 289.3056 0037088 179.6502 180.2834  1.00266383 16566
BEIDOU-3 M22 (C44)      
1 44793U 19078A   24114.06086859 -.00000065  00000+0  00000+0 0  9996
2 44793  54.6023 327.2756 0007098  27.8276 332.2493  1.86232266 30035
BEIDOU-3 M21 (C43)      
1 44794U 19078B   24113.11690350 -.00000067  00000+0  00000+0 0  9991
2 44794  54.5768 327.2856 0004929  23.7789 336.2839  1.86232757 30017
BEIDOU-3 M19 (C41)      
1 44864U 19090A   24112.54861578  .00000021  00000+0  00000+0 0  9990
2 44864  55.8849  88.9419 0019759 283.0921 249.0188  1.86231884 29589
BEIDOU-3 M20 (C42)      
1 44865U 19090B   24113.33864973  .00000018  00000+0  00000+0 0  9997
2 44865  55.8873  88.9490 0017688 295.0406 136.4993  1.86231806 29583
BEIDOU-3 G2 (C60)       
1 45344U 20017A   24113.85327164 -.00000130  00000+0  00000+0 0  9990
2 45344   2.2521  27.3748 0001136 350.6181 220.5999  1.00271012 15398
BEIDOU-3 G3 (C61)       
1 45807U 20040A   24114.49584351 -.00000341  00000+0  00000+0 0  9998
2 45807   0.6934  34.3450 0005536 303.9848 162.7830  1.00273165 14211
BEIDOU-3 G4             
1 56564U 23066A   24114.14769885 -.00000102  00000+0  00000+0 0  9995
2 56564   2.2617 288.2203 0004182 188.2591 308.4395  1.00272904  3538
BEIDOU-3 M25            
1 58654U 23207A   24113.19952513  .00000017  00000+0  00000+0 0  9994
2 58654  55.0678  88.9752 0004911 293.1620  66.7691  1.86232355  2202
BEIDOU-3 M26            
1 58655U 23207B   24114.07226663  .00000015  00000+0  00000+0 0  9991
2 58655  55.0703  88.9309 0005434 278.1889  81.7288  1.86231928  2205
